$$SOE
2460154.500000000, A.D. 2023-Jul-29 00:00:00.0000, -3.475780371293812E+08, 3.785267063754597E+08, 2.794035455952100E+07,
2460161.500000000, A.D. 2023-Aug-05 00:00:00.0000, -3.538484520471036E+08, 3.718929164875191E+08, 2.711960728392181E+07,
2460168.500000000, A.D. 2023-Aug-12 00:00:00.0000, -3.599924486181873E+08, 3.651261987946097E+08, 2.628916887812562E+07,
2460175.500000000, A.D. 2023-Aug-19 00:00:00.0000, -3.660073603972774E+08, 3.582284900803162E+08, 2.544930175676087E+07,
2460182.500000000, A.D. 2023-Aug-26 00:00:00.0000, -3.718905326755513E+08, 3.512017737607673E+08, 2.460027261479819E+07,
2460189.500000000, A.D. 2023-Sep-02 00:00:00.0000, -3.776393229515512E+08, 3.440480806268358E+08, 2.374235248797999E+07,
2460196.500000000, A.D. 2023-Sep-09 00:00:00.0000, -3.832511014258465E+08, 3.367694894913625E+08, 2.287581680261266E+07,
2460203.500000000, A.D. 2023-Sep-16 00:00:00.0000, -3.887232513525081E+08, 3.293681276826661E+08, 2.200094539448696E+07,
2460210.500000000, A.D. 2023-Sep-23 00:00:00.0000, -3.940531688324000E+08, 3.218461716702084E+08, 2.111802248213910E+07,
2460217.500000000, A.D. 2023-Sep-30 00:00:00.0000, -3.992382623896385E+08, 3.142058490120977E+08, 2.022733672289124E+07,
2460224.500000000, A.D. 2023-Oct-07 00:00:00.0000, -4.042759546874884E+08, 3.064494410811963E+08, 1.932918152319999E+07,
2460231.500000000, A.D. 2023-Oct-14 00:00:00.0000, -4.091636853453820E+08, 2.985792832568237E+08, 1.842385523718423E+07,
2460238.500000000, A.D. 2023-Oct-21 00:00:00.0000, -4.138989116285258E+08, 2.905977641830851E+08, 1.751166108826156E+07,
2460245.500000000, A.D. 2023-Oct-28 00:00:00.0000, -4.184791084364672E+08, 2.825073263515727E+08, 1.659290712934841E+07,
2460252.500000000, A.D. 2023-Nov-04 00:00:00.0000, -4.229017688438135E+08, 2.743104672373466E+08, 1.566790629339162E+07,
2460259.500000000, A.D. 2023-Nov-11 00:00:00.0000, -4.271644050177559E+08, 2.660097403878630E+08, 1.473697646899381E+07,
2460266.500000000, A.D. 2023-Nov-18 00:00:00.0000, -4.312645492946947E+08, 2.576077563995393E+08, 1.380044057580686E+07,
2460273.500000000, A.D. 2023-Nov-25 00:00:00.0000, -4.351997553449586E+08, 2.491071838033430E+08, 1.285862663486999E+07,
2460280.500000000, A.D. 2023-Dec-02 00:00:00.0000, -4.389675993990679E+08, 2.405107498470311E+08, 1.191186783033213E+07,
2460287.500000000, A.D. 2023-Dec-09 00:00:00.0000, -4.425656814588635E+08, 2.318212411137395E+08, 1.096050255047052E+07,
2460294.500000000, A.D. 2023-Dec-16 00:00:00.0000, -4.459916262065917E+08, 2.230415039874842E+08, 1.000487438246815E+07,
2460301.500000000, A.D. 2023-Dec-23 00:00:00.0000, -4.492430832640932E+08, 2.141744456500509E+08, 9.045332084933758E+06,
2460308.500000000, A.D. 2023-Dec-30 00:00:00.0000, -4.523177281441183E+08, 2.052230366548611E+08, 8.082229746535271E+06,
2460315.500000000, A.D. 2024-Jan-06 00:00:00.0000, -4.552132656700329E+08, 1.961903127142671E+08, 7.115927099956155E+06,
2460322.500000000, A.D. 2024-Jan-13 00:00:00.0000, -4.579274326944525E+08, 1.870793738919300E+08, 6.146789552014872E+06,
2460329.500000000, A.D. 2024-Jan-20 00:00:00.0000, -4.604579988947630E+08, 1.778933842824588E+08, 5.175188069342457E+06,
2460336.500000000, A.D. 2024-Jan-27 00:00:00.0000, -4.628027676770577E+08, 1.686355728275299E+08, 4.201499158393584E+06,
2460343.500000000, A.D. 2024-Feb-03 00:00:00.0000, -4.649595776201999E+08, 1.593092343179601E+08, 3.226104900855884E+06,
2460350.500000000, A.D. 2024-Feb-10 00:00:00.0000, -4.669263041847060E+08, 1.499177302887069E+08, 2.249392994593471E+06,
2460357.500000000, A.D. 2024-Feb-17 00:00:00.0000, -4.687008615490019E+08, 1.404644898119922E+08, 1.271756787491187E+06,
2460364.500000000, A.D. 2024-Feb-24 00:00:00.0000, -4.702812045382152E+08, 1.309530102000141E+08, 2.935953015734628E+05,
2460371.500000000, A.D. 2024-Mar-02 00:00:00.0000, -4.716653306172029E+08, 1.213868575810316E+08, -6.846867584671378E+05,
2460378.500000000, A.D. 2024-Mar-09 00:00:00.0000, -4.728512818099474E+08, 1.117696672819340E+08, -1.662679030698396E+06,
2460385.500000000, A.D. 2024-Mar-16 00:00:00.0000, -4.738371461508062E+08, 1.021051442100933E+08, -2.639965575932659E+06,
2460392.500000000, A.D. 2024-Mar-23 00:00:00.0000, -4.746210587719760E+08, 9.239706433847690E+07, -3.616124912578683E+06,
2460399.500000000, A.D. 2024-Mar-30 00:00:00.0000, -4.752012048699895E+08, 8.264927726159687E+07, -4.590729803493407E+06,
2460406.500000000, A.D. 2024-Apr-06 00:00:00.0000, -4.755758242982934E+08, 7.286570644967800E+07, -5.563347094138518E+06,
2460413.500000000, A.D. 2024-Apr-13 00:00:00.0000, -4.757432142364521E+08, 6.305034803343230E+07, -6.533537859868944E+06,
2460420.500000000, A.D. 2024-Apr-20 00:00:00.0000, -4.757017308878131E+08, 5.320727079077423E+07, -7.500857556603836E+06,
2460427.500000000, A.D. 2024-Apr-27 00:00:00.0000, -4.754497917236406E+08, 4.334061676766488E+07, -8.464856082149772E+06,
2460434.500000000, A.D. 2024-May-04 00:00:00.0000, -4.749858781877785E+08, 3.345460182403008E+07, -9.425077814385429E+06,
2460441.500000000, A.D. 2024-May-11 00:00:00.0000, -4.743085386245651E+08, 2.355351599776133E+07, -1.038106165706085E+07,
2460448.500000000, A.D. 2024-May-18 00:00:00.0000, -4.734163913480914E+08, 1.364172370285091E+07, -1.133234109944511E+07,
2460455.500000000, A.D. 2024-May-25 00:00:00.0000, -4.723081278276929E+08, 3.723663748444038E+06, -1.227844429312020E+07,
2460462.500000000, A.D. 2024-Jun-01 00:00:00.0000, -4.709825159291825E+08, -6.196150885113620E+06, -1.321889415653740E+07,
2460469.500000000, A.D. 2024-Jun-08 00:00:00.0000, -4.694384029645176E+08, -1.611313354298076E+07, -1.415320853222392E+07,
2460476.500000000, A.D. 2024-Jun-15 00:00:00.0000, -4.676747181489099E+08, -2.602262412729201E+07, -1.508090038912752E+07,
2460483.500000000, A.D. 2024-Jun-22 00:00:00.0000, -4.656904754685622E+08, -3.591988789593650E+07, -1.600147788225960E+07,
2460490.500000000, A.D. 2024-Jun-29 00:00:00.0000, -4.634847790791243E+08, -4.580011465795277E+07, -1.691444422440571E+07,
2460497.500000000, A.D. 2024-Jul-06 00:00:00.0000, -4.610568285893355E+08, -5.565842084480350E+07, -1.781929781518855E+07,
2460504.500000000, A.D. 2024-Jul-13 00:00:00.0000, -4.584059222781599E+08, -6.548985164057678E+07, -1.871553257602015E+07,
2460511.500000000, A.D. 2024-Jul-20 00:00:00.0000, -4.555314602263094E+08, -7.528938203058222E+07, -1.960263821539634E+07,
2460518.500000000, A.D. 2024-Jul-27 00:00:00.0000, -4.524329480140507E+08, -8.505191773731384E+07, -2.048010044359158E+07,
2460525.500000000, A.D. 2024-Aug-03 00:00:00.0000, -4.491100007091742E+08, -9.477229642778020E+07, -2.134740119349337E+07,
2460532.500000000, A.D. 2024-Aug-10 00:00:00.0000, -4.455623469752333E+08, -1.044452892045553E+08, -2.220401886414970E+07,
2460539.500000000, A.D. 2024-Aug-17 00:00:00.0000, -4.417898332466518E+08, -1.140656023661533E+08, -2.304942859040507E+07,
2460546.500000000, A.D. 2024-Aug-24 00:00:00.0000, -4.377924279348194E+08, -1.236278794665272E+08, -2.388310254363927E+07,
2460553.500000000, A.D. 2024-Aug-31 00:00:00.0000, -4.335702255401788E+08, -1.331267037436395E+08, -2.470451027980842E+07,
2460560.500000000, A.D. 2024-Sep-07 00:00:00.0000, -4.291234502951354E+08, -1.425566008003300E+08, -2.551311915865608E+07,
2460567.500000000, A.D. 2024-Sep-14 00:00:00.0000, -4.244524592432815E+08, -1.519120405517612E+08, -2.630839476139884E+07,
2460574.500000000, A.D. 2024-Sep-21 00:00:00.0000, -4.195577467748137E+08, -1.611874380369469E+08, -2.708980108814676E+07,
2460581.500000000, A.D. 2024-Sep-28 00:00:00.0000, -4.144399510973997E+08, -1.703771563318259E+08, -2.785680075537517E+07,
2460588.500000000, A.D. 2024-Oct-05 00:00:00.0000, -4.090998589646970E+08, -1.794755115704691E+08, -2.860885553103561E+07,
2460595.500000000, A.D. 2024-Oct-12 00:00:00.0000, -4.035384090119814E+08, -1.884767771003363E+08, -2.934542693118652E+07,
2460602.500000000, A.D. 2024-Oct-19 00:00:00.0000, -3.977566954351967E+08, -1.973751870482753E+08, -3.006597673977210E+07,
2460609.500000000, A.D. 2024-Oct-26 00:00:00.0000, -3.917559720302001E+08, -2.061649401055692E+08, -3.076996751425897E+07,
2460616.500000000, A.D. 2024-Nov-02 00:00:00.0000, -3.855376563195145E+08, -2.148402036874116E+08, -3.145686311317332E+07,
2460623.500000000, A.D. 2024-Nov-09 00:00:00.0000, -3.791033336543039E+08, -2.233951184520549E+08, -3.212612925291783E+07,
2460630.500000000, A.D. 2024-Nov-16 00:00:00.0000, -3.724547612488599E+08, -2.318238031841560E+08, -3.277723409621826E+07,
2460637.500000000, A.D. 2024-Nov-23 00:00:00.0000, -3.655938720826812E+08, -2.401203600961111E+08, -3.340964888041373E+07,
2460644.500000000, A.D. 2024-Nov-30 00:00:00.0000, -3.585227784429387E+08, -2.482788805930682E+08, -3.402284860788277E+07,
2460651.500000000, A.D. 2024-Dec-07 00:00:00.0000, -3.512437746681238E+08, -2.562934510829281E+08, -3.461631280224383E+07,
2460658.500000000, A.D. 2024-Dec-14 00:00:00.0000, -3.437593397605625E+08, -2.641581576079161E+08, -3.518952616646528E+07,
2460665.500000000, A.D. 2024-Dec-21 00:00:00.0000, -3.360721421641580E+08, -2.718670905381756E+08, -3.574197903082018E+07,
2460672.500000000, A.D. 2024-Dec-28 00:00:00.0000, -3.281850447130899E+08, -2.794143522943710E+08, -3.627316801343149E+07,
2460679.500000000, A.D. 2025-Jan-04 00:00:00.0000, -3.201011071332797E+08, -2.867940657211037E+08, -3.678259693661420E+07,
2460686.500000000, A.D. 2025-Jan-11 00:00:00.0000, -3.118235878955459E+08, -2.940003814460509E+08, -3.726977769491863E+07,
2460693.500000000, A.D. 2025-Jan-18 00:00:00.0000, -3.033559463131290E+08, -3.010274851362411E+08, -3.773423106407592E+07,
2460700.500000000, A.D. 2025-Jan-25 00:00:00.0000, -2.947018446150789E+08, -3.078696051177145E+08, -3.817548751013440E+07,
2460707.500000000, A.D. 2025-Feb-01 00:00:00.0000, -2.858651497813893E+08, -3.145210203795301E+08, -3.859308801686883E+07,
2460714.500000000, A.D. 2025-Feb-08 00:00:00.0000, -2.768499350576671E+08, -3.209760689315521E+08, -3.898658493336353E+07,
$$EOE